SCD 1                   
1 22490U 93009B   26177.26667164  .00000382  00000+0  53461-4 0  9994
2 22490  24.9681 151.5137 0041688 233.8672 148.8488 14.46121810762431
TECHSAT 1B (GO-32)      
1 25397U 98043D   26177.26621801  .00000061  00000+0  46673-4 0  9995
2 25397  99.0071 170.2540 0001510 145.7294 214.3982 14.24430022452622
SCD 2                   
1 25504U 98060A   26176.87742550  .00000367  00000+0  51475-4 0  9990
2 25504  24.9966  18.5663 0016631 214.4412 274.0497 14.45528821461585
DLR-TUBSAT              
1 25757U 99029B   26177.24915558  .00000092  00000+0  34366-4 0  9993
2 25757  98.6697 173.0515 0013520 326.8264  33.2082 14.52428878434566
TERRA                   
1 25994U 99068A   26177.26331108  .00000365  00000+0  83231-4 0  9992
2 25994  97.9452 226.4496 0002300 163.0982 261.6304 14.61109702410934
MAROC-TUBSAT            
1 27004U 01056D   26177.22610894 -.00000017  00000+0  34020-4 0  9991
2 27004  99.8086 354.2561 0020539 118.8322  60.5778 13.70262796227428
AQUA                    
1 27424U 02022A   26177.22341753  .00000757  00000+0  16026-3 0  9991
2 27424  98.4280 146.6869 0000791  65.7405 351.9250 14.62170836284597
SHIYAN-1 (SY-1)         
1 28220U 04012A   26177.18627236  .00015562  00000+0  47543-3 0  9993
2 28220  97.8696 255.8401 0004808   0.6274 359.4972 15.33979243212476
AURA                    
1 28376U 04026A   26177.22970058  .00000751  00000+0  16184-3 0  9999
2 28376  98.3420 133.7579 0001171  82.6403 277.4930 14.61341765167534
IRS-P5 (CARTOSAT-1)     
1 28649U 05017A   26177.00367370  .00001427  00000+0  14935-3 0  9999
2 28649  97.5305 199.6682 0002365  69.0595 291.0877 14.91070554145135
SINAH 1                 
1 28893U 05043D   26177.27994480  .00000318  00000+0  69900-4 0  9997
2 28893  98.2870 311.6558 0013258 245.5607 114.4212 14.64163334101858
RESURS-DK 1             
1 29228U 06021A   26177.15751604  .00002327  00000+0  13662-3 0  9998
2 29228  69.9337 316.3330 0006743 287.6006  72.4424 15.13251602103935
ARIRANG-2 (KOMPSAT-2)   
1 29268U 06031A   26177.32251220  .00000445  00000+0  91962-4 0  9990
2 29268  97.8312   1.3272 0015648  48.2333  75.7086 14.64665481 62816
LAPAN-TUBSAT            
1 29709U 07001A   26177.27762924  .00000391  00000+0  51392-4 0  9993
2 29709  98.1344 176.7063 0012662 150.4216 209.7717 14.85956933 52502
HAIYANG-1B              
1 31113U 07010A   26177.23442841  .00000096  00000+0  52195-4 0  9998
2 31113  98.3498 158.7289 0013638 169.2133 190.9345 14.31029067  1935
COSMO-SKYMED 1          
1 31598U 07023A   26177.29157648  .00003154  00000+0  27828-3 0  9995
2 31598  97.8861   9.2240 0001821  90.2508 269.8922 14.97147410 31156
TERRASAR-X              
1 31698U 07026A   26175.56897117  .00001644  00000+0  81449-4 0  9991
2 31698  97.4447 183.1695 0001626  88.3572 271.7849 15.19150427 54344
WORLDVIEW-1 (WV-1)      
1 32060U 07041A   26177.21986672  .00006941  00000+0  28636-3 0  9994
2 32060  97.3880 296.8342 0001385 347.1416  12.9786 15.24360083 44255
YAOGAN-3                
1 32289U 07055A   26177.32273906  .00002374  00000+0  24688-3 0  9992
2 32289  97.8157 207.1106 0001889  81.6133 278.5299 14.90816296  7238
COSMO-SKYMED 2          
1 32376U 07059A   26177.27496147  .00000454  00000+0  63611-4 0  9998
2 32376  97.8888   0.7411 0001355  88.1483 271.9885 14.82152312  3350
RADARSAT-2              
1 32382U 07061A   26177.27396608  .00000159  00000+0  78408-4 0  9991
2 32382  98.5781 184.0766 0001305  83.9508 276.1823 14.29983859967258
CARTOSAT-2A             
1 32783U 08021A   26177.31366656  .00001104  00000+0  15516-3 0  9999
2 32783  97.7633 225.7109 0013359  82.5690 277.7039 14.79252798980159
HUANJING 1A (HJ-1A)     
1 33320U 08041A   26177.26899493  .00001973  00000+0  24231-3 0  9991
2 33320  97.6684 162.7563 0020558 106.7677 253.5796 14.84008675959752
HUANJING 1B (HJ-1B)     
1 33321U 08041B   26177.24220969  .00000545  00000+0  72016-4 0  9995
2 33321  97.6520 165.8747 0036832 151.3777 208.9470 14.83329355959752
GEOEYE 1                
1 33331U 08042A   26177.23752969  .00001365  00000+0  26585-3 0  9996
2 33331  98.1334 251.0543 0005285  43.5970 316.5650 14.64634061951478
THEOS                   
1 33396U 08049A   26177.26902329  .00000104  00000+0  68525-4 0  9995
2 33396  98.5571 234.2579 0001161  81.8630 278.2678 14.20134693919257
COSMO-SKYMED 3          
1 33412U 08054A   26177.23991027  .00003027  00000+0  20614-3 0  9993
2 33412  97.8272  35.9614 0014356 233.0986 126.8926 15.06997870958309
YAOGAN-4                
1 33446U 08061A   26177.27454173  .00001016  00000+0  13071-3 0  9993
2 33446  97.9307 110.7177 0015356  45.5192 314.7275 14.83216828947010
GOSAT (IBUKI)           
1 33492U 09002A   26177.27476558 -.00000088  00000+0 -70581-5 0  9992
2 33492  98.0901 288.2425 0001353  83.7229 276.4130 14.67538126932790
DEIMOS-1                
1 35681U 09041A   26177.27516640  .00000593  00000+0  94657-4 0  9992
2 35681  97.7411 334.1093 0002188 118.8471 241.2959 14.75245930908229
